{
  "type": "FeatureCollection",
  "features": [
    {
      "type": "Feature",
      "properties": {
        "norad_id": 41581,
        "name": "INTELSAT 31 (IS-31)",
        "group": "intelsat",
        "lat": 0.023111142339442583,
        "lon": 56.06726935260934,
        "alt_km": 35794.61215432682,
        "timestamp": "2025-12-09T04:51:47.176091+00:00",
        "meta_object_name": "INTELSAT 31 (IS-31)",
        "meta_object_id": "2016-035A",
        "meta_epoch": "2025-12-08T12:24:17.231040",
        "meta_mean_motion": 1.00269201,
        "meta_eccentricity": 0.0001923,
        "meta_inclination": 0.0201,
        "meta_ra_of_asc_node": 270.4378,
        "meta_arg_of_pericenter": 308.9004,
        "meta_mean_anomaly": 309.1947,
        "meta_ephemeris_type": 0,
        "meta_classification_type": "U",
        "meta_norad_cat_id": 41581,
        "meta_element_set_no": 999,
        "meta_rev_at_epoch": 3477,
        "meta_bstar": 0,
        "meta_mean_motion_dot": -1.48e-06,
        "meta_mean_motion_ddot": 0,
        "tle_line1": "1 41581U 16035A   25342.51686610 -.00000148  00000+0  00000+0 0  9995",
        "tle_line2": "2 41581   0.0201 270.4378 0001923 308.9004 309.1947  1.00269201 34779"
      },
      "geometry": {
        "type": "Point",
        "coordinates": [
          56.06726935260934,
          0.023111142339442583
        ]
      }
    },
    {
      "type": "Feature",
      "properties": {
        "norad_id": 41747,
        "name": "INTELSAT 36 (IS-36)",
        "group": "intelsat",
        "lat": -0.02554154731099774,
        "lon": -140.3807141567629,
        "alt_km": 35787.15946591392,
        "timestamp": "2025-12-09T04:51:47.176103+00:00",
        "meta_object_name": "INTELSAT 36 (IS-36)",
        "meta_object_id": "2016-053A",
        "meta_epoch": "2025-12-08T12:13:07.705344",
        "meta_mean_motion": 1.0026981,
        "meta_eccentricity": 0.0001378,
        "meta_inclination": 0.0114,
        "meta_ra_of_asc_node": 350.963,
        "meta_arg_of_pericenter": 324.2523,
        "meta_mean_anomaly": 14.0801,
        "meta_ephemeris_type": 0,
        "meta_classification_type": "U",
        "meta_norad_cat_id": 41747,
        "meta_element_set_no": 999,
        "meta_rev_at_epoch": 3403,
        "meta_bstar": 0,
        "meta_mean_motion_dot": -2.2e-07,
        "meta_mean_motion_ddot": 0,
        "tle_line1": "1 41747U 16053A   25342.50911696 -.00000022  00000+0  00000+0 0  9994",
        "tle_line2": "2 41747   0.0114 350.9630 0001378 324.2523  14.0801  1.00269810 34038"
      },
      "geometry": {
        "type": "Point",
        "coordinates": [
          -140.3807141567629,
          -0.02554154731099774
        ]
      }
    },
    {
      "type": "Feature",
      "properties": {
        "norad_id": 41945,
        "name": "INTELSAT 32E (IS-32E)",
        "group": "intelsat",
        "lat": 0.02873729675597874,
        "lon": 107.9765609719592,
        "alt_km": 35786.76431674656,
        "timestamp": "2025-12-09T04:51:47.176115+00:00",
        "meta_object_name": "INTELSAT 32E (IS-32E)",
        "meta_object_id": "2017-007B",
        "meta_epoch": "2025-12-08T09:58:28.100928",
        "meta_mean_motion": 1.00273553,
        "meta_eccentricity": 2.799e-05,
        "meta_inclination": 0.0258,
        "meta_ra_of_asc_node": 66.5377,
        "meta_arg_of_pericenter": 242.4063,
        "meta_mean_anomaly": 234.9251,
        "meta_ephemeris_type": 0,
        "meta_classification_type": "U",
        "meta_norad_cat_id": 41945,
        "meta_element_set_no": 999,
        "meta_rev_at_epoch": 3231,
        "meta_bstar": 0,
        "meta_mean_motion_dot": -2.66e-06,
        "meta_mean_motion_ddot": 0,
        "tle_line1": "1 41945U 17007B   25342.41560302 -.00000266  00000+0  00000+0 0  9998",
        "tle_line2": "2 41945   0.0258  66.5377 0000279 242.4063 234.9251  1.00273553 32314"
      },
      "geometry": {
        "type": "Point",
        "coordinates": [
          107.9765609719592,
          0.02873729675597874
        ]
      }
    },
    {
      "type": "Feature",
      "properties": {
        "norad_id": 42818,
        "name": "INTELSAT 35E (IS-35E)",
        "group": "intelsat",
        "lat": 0.022592122770925017,
        "lon": 116.62618896504574,
        "alt_km": 35795.07825919726,
        "timestamp": "2025-12-09T04:51:47.176126+00:00",
        "meta_object_name": "INTELSAT 35E (IS-35E)",
        "meta_object_id": "2017-041A",
        "meta_epoch": "2025-12-08T15:08:58.362720",
        "meta_mean_motion": 1.00269468,
        "meta_eccentricity": 0.0002334,
        "meta_inclination": 0.0186,
        "meta_ra_of_asc_node": 327.2982,
        "meta_arg_of_pericenter": 296.4588,
        "meta_mean_anomaly": 6.6258,
        "meta_ephemeris_type": 0,
        "meta_classification_type": "U",
        "meta_norad_cat_id": 42818,
        "meta_element_set_no": 999,
        "meta_rev_at_epoch": 3090,
        "meta_bstar": 0,
        "meta_mean_motion_dot": -2.36e-06,
        "meta_mean_motion_ddot": 0,
        "tle_line1": "1 42818U 17041A   25342.63123105 -.00000236  00000+0  00000+0 0  9993",
        "tle_line2": "2 42818   0.0186 327.2982 0002334 296.4588   6.6258  1.00269468 30902"
      },
      "geometry": {
        "type": "Point",
        "coordinates": [
          116.62618896504574,
          0.022592122770925017
        ]
      }
    },
    {
      "type": "Feature",
      "properties": {
        "norad_id": 42950,
        "name": "INTELSAT 37E (IS-37E)",
        "group": "intelsat",
        "lat": 0.02475824014252917,
        "lon": 133.10569366329338,
        "alt_km": 35793.654916638014,
        "timestamp": "2025-12-09T04:51:47.176138+00:00",
        "meta_object_name": "INTELSAT 37E (IS-37E)",
        "meta_object_id": "2017-059A",
        "meta_epoch": "2025-12-08T18:39:16.820928",
        "meta_mean_motion": 1.00270726,
        "meta_eccentricity": 0.0003405,
        "meta_inclination": 0.0163,
        "meta_ra_of_asc_node": 4.811,
        "meta_arg_of_pericenter": 248.497,
        "meta_mean_anomaly": 86.2911,
        "meta_ephemeris_type": 0,
        "meta_classification_type": "U",
        "meta_norad_cat_id": 42950,
        "meta_element_set_no": 999,
        "meta_rev_at_epoch": 3015,
        "meta_bstar": 0,
        "meta_mean_motion_dot": -1.39e-06,
        "meta_mean_motion_ddot": 0,
        "tle_line1": "1 42950U 17059A   25342.77727802 -.00000139  00000+0  00000+0 0  9990",
        "tle_line2": "2 42950   0.0163   4.8110 0003405 248.4970  86.2911  1.00270726 30153"
      },
      "geometry": {
        "type": "Point",
        "coordinates": [
          133.10569366329338,
          0.02475824014252917
        ]
      }
    },
    {
      "type": "Feature",
      "properties": {
        "norad_id": 43632,
        "name": "AZERSPACE 2 (IS-38)",
        "group": "intelsat",
        "lat": -0.023866234422689158,
        "lon": -163.76728087854016,
        "alt_km": 35783.464807087286,
        "timestamp": "2025-12-09T04:51:47.176149+00:00",
        "meta_object_name": "AZERSPACE 2 (IS-38)",
        "meta_object_id": "2018-074A",
        "meta_epoch": "2025-12-08T18:57:15.098976",
        "meta_mean_motion": 1.00270055,
        "meta_eccentricity": 0.0001575,
        "meta_inclination": 0.0176,
        "meta_ra_of_asc_node": 335.5747,
        "meta_arg_of_pericenter": 283.3832,
        "meta_mean_anomaly": 148.2565,
        "meta_ephemeris_type": 0,
        "meta_classification_type": "U",
        "meta_norad_cat_id": 43632,
        "meta_element_set_no": 999,
        "meta_rev_at_epoch": 2653,
        "meta_bstar": 0,
        "meta_mean_motion_dot": 1.39e-06,
        "meta_mean_motion_ddot": 0,
        "tle_line1": "1 43632U 18074A   25342.78975809  .00000139  00000+0  00000+0 0  9998",
        "tle_line2": "2 43632   0.0176 335.5747 0001575 283.3832 148.2565  1.00270055 26532"
      },
      "geometry": {
        "type": "Point",
        "coordinates": [
          -163.76728087854016,
          -0.023866234422689158
        ]
      }
    },
    {
      "type": "Feature",
      "properties": {
        "norad_id": 43633,
        "name": "HORIZONS-3E",
        "group": "intelsat",
        "lat": 0.019719455493634245,
        "lon": -39.84604414679903,
        "alt_km": 35782.33261117227,
        "timestamp": "2025-12-09T04:51:47.176161+00:00",
        "meta_object_name": "HORIZONS-3E",
        "meta_object_id": "2018-074B",
        "meta_epoch": "2025-12-08T14:38:38.662944",
        "meta_mean_motion": 1.00267707,
        "meta_eccentricity": 0.0001331,
        "meta_inclination": 0.0425,
        "meta_ra_of_asc_node": 176.8531,
        "meta_arg_of_pericenter": 113.5784,
        "meta_mean_anomaly": 175.8576,
        "meta_ephemeris_type": 0,
        "meta_classification_type": "U",
        "meta_norad_cat_id": 43633,
        "meta_element_set_no": 999,
        "meta_rev_at_epoch": 2643,
        "meta_bstar": 0,
        "meta_mean_motion_dot": -2.9e-07,
        "meta_mean_motion_ddot": 0,
        "tle_line1": "1 43633U 18074B   25342.61016971 -.00000029  00000+0  00000+0 0  9996",
        "tle_line2": "2 43633   0.0425 176.8531 0001331 113.5784 175.8576  1.00267707 26434"
      },
      "geometry": {
        "type": "Point",
        "coordinates": [
          -39.84604414679903,
          0.019719455493634245
        ]
      }
    }
  ]
}